401P/McNaught,e,12.8026,359.8809,309.4330,5.777039,0.0709817,0.57949062,81.7928,02/01.0/2023,2000,g 12.5,4.0
# From MPEC 2023-BF4
402P/LINEAR,e,30.8436,123.0911,326.7577,7.025298,0.0529306,0.43945063,21.8724,02/01.0/2023,2000,g  8.0,4.0
# From MPEC 2021-J28
403P/Catalina,e,12.3211,163.8098,277.6376,5.428617,0.0779238,0.50392849,67.5912,02/01.0/2023,2000,g 12.0,4.0
# From MPEC 2023-B57
404P/Bressi,e,9.7631,260.1478,168.7844,4.755097,0.0950528,0.13073610,334.1357,02/01.0/2023,2000,g 10.0,4.0
# From MPEC 2021-L04
405P/Lemmon,e,9.3656,3.3112,112.1883,3.606035,0.1439326,0.68933278,110.6360,02/01.0/2023,2000,g 17.5,4.0
# From MPEC 2021-F20
406P/Gibbs,e,1.2130,11.4917,352.4283,3.576951,0.1456917,0.54199688,126.4693,02/01.0/2023,2000,g 17.0,4.0
# From MPEC 2022-YN2
407P/PANSTARRS-Fuls,e,4.8740,80.3863,93.5362,3.476978,0.1520202,0.37978648,167.0624,02/01.0/2023,2000,g 14.0,4.0
# From MPEC 2023-BF4
408P/Novichonok-Gerke,e,19.3569,189.4415,226.4827,4.742722,0.0954251,0.26886244,11.3367,02/01.0/2023,2000,g 11.0,4.0
# From MPEC 2022-ED3
409P/LONEOS-Hill,e,17.1215,143.6643,15.0930,6.038389,0.0664236,0.70963160,48.7556,02/01.0/2023,2000,g 14.0,4.0
# From MPEC 2022-M21
410P/NEAT-LINEAR,e,9.3921,139.9755,313.1051,6.641593,0.0575832,0.51118295,33.8177,02/01.0/2023,2000,g 12.5,4.0
# From MPEC 2021-J28
411P/Christensen,e,12.3830,77.6535,46.6004,5.812938,0.0703251,0.58089935,51.8768,02/01.0/2023,2000,g 13.5,4.0
# From MPEC 2021-F20
412P/WISE,e,8.9313,0.8447,155.9402,3.110135,0.1796947,0.47912407,141.6201,02/01.0/2023,2000,g 17.0,4.0
# From MPEC 2022-OB6
413P/Larson,e,15.9851,38.9646,186.3834,3.718165,0.1374710,0.42308277,77.0262,02/01.0/2023,2000,g 14.0,4.0
# From MPEC 2021-BE3
414P/STEREO,e,23.3956,257.7994,210.6997,2.793403,0.2111075,0.81176773,155.5166,02/01.0/2023,2000,g 19.0,4.0
# From MPEC 2022-J42
415P/Tenagra,e,31.7919,160.2895,346.0217,4.112257,0.1181908,0.19468967,84.7534,02/01.0/2023,2000,g 12.0,4.0
# From MPEC 2021-L04
416P/Scotti,e,3.3612,355.8025,134.4222,4.009844,0.1227476,0.45441762,87.8482,02/01.0/2023,2000,g 15.5,4.0
# From MPEC 2021-W31
417P/NEOWISE,e,8.1263,110.7974,129.6778,3.341836,0.1613342,0.55773518,104.6499,02/01.0/2023,2000,g 16.5,4.0
# From MPEC 2022-TA0
418P/LINEAR,e,5.7890,277.5302,307.3879,5.092219,0.0857716,0.66487254,40.4267,02/01.0/2023,2000,g 13.0,4.0
# From MPEC 2022-ST7
419P/PANSTARRS,e,2.8030,40.3878,187.6040,3.521652,0.1491367,0.27744573,68.7899,02/01.0/2023,2000,g 12.5,4.0
# From MPEC 2022-OB6
420P/Hill,e,14.5002,173.9421,156.9221,5.537058,0.0756459,0.49675571,19.2985,02/01.0/2023,2000,g 11.5,4.0
# From MPEC 2021-W31
421P/McNaught,e,10.0771,55.3395,259.8746,5.076339,0.0861744,0.67523625,63.4542,02/01.0/2023,2000,g 14.0,4.0
# From MPEC 2022-X67
422P/Christensen,e,39.5803,36.0251,305.0332,6.303995,0.0622702,0.50765229,23.9032,02/01.0/2023,2000,g 11.0,4.0
# From MPEC 2023-A50
423P/Lemmon,e,8.3463,33.2959,80.3093,6.170207,0.0643064,0.12165157,32.1764,02/01.0/2023,2000,g  8.0,4.0
# From MPEC 2022-CN4
424P/LaSagra,e,8.6849,51.1673,312.5218,4.416511,0.1061904,0.69127730,48.5664,02/01.0/2023,2000,g 17.0,4.0
# From MPEC 2023-BF4
425P/Kowalski,e,16.4206,210.0763,200.8083,6.337814,0.0617725,0.54386885,30.7814,02/01.0/2023,2000,g 12.0,4.0
# From MPEC 2022-P82
426P/PANSTARRS,e,17.7658,280.4981,118.9205,3.188771,0.1730889,0.16163043,321.2152,02/01.0/2023,2000,g 13.5,4.0
# From MPEC 2022-J42
428P/Gibbs,e,8.5120,299.3407,36.8605,3.485624,0.1514549,0.51930049,95.0191,02/01.0/2023,2000,g 15.0,4.0
# From MPEC 2022-H04
429P/LINEAR-Hill,e,7.5207,322.0744,75.5755,3.552379,0.1472059,0.49141836,58.1137,02/01.0/2023,2000,g 15.5,4.0
# From MPEC 2022-L66
430P/Scotti,e,4.4753,54.6735,94.4605,3.105443,0.1801021,0.49955408,76.6933,02/01.0/2023,2000,g 16.5,4.0
# From MPEC 2022-ED3
431P/Scotti,e,22.3924,202.8425,199.8956,3.473785,0.1522298,0.47778838,53.6700,02/01.0/2023,2000,g 14.0,4.0
# From MPEC 2021-U31
432P/PANSTARRS,e,10.0688,239.1405,105.2659,3.035630,0.1863506,0.24183604,96.8378,02/01.0/2023,2000,g 17.0,4.0
# From MPEC 2022-OB6
434P/Tenagra,e,6.3379,288.9644,128.1379,4.130493,0.1174090,0.27464548,54.3335,02/01.0/2023,2000,g 13.0,4.0
# From MPEC 2021-W31
435P/PANSTARRS,e,18.8797,98.5495,244.1961,3.019031,0.1878896,0.31854486,104.0003,02/01.0/2023,2000,g 17.0,4.0
# From MPEC 2022-X67
436P/Garradd,e,20.2074,87.1871,282.6275,5.930992,0.0682359,0.66982210,28.6228,02/01.0/2023,2000,g 14.5,4.0
# From MPEC 2023-B57
437P/Lemmon-PANSTARRS,e,3.6890,245.8621,206.7513,4.561285,0.1011750,0.25454562,16.8337,02/01.0/2023,2000,g 13.0,4.0
# From MPEC 2021-W47
438P/Christensen,e,8.2842,260.1419,59.0078,3.848645,0.1305396,0.41534370,134.6983,02/01.0/2023,2000,g 14.5,4.0
# From MPEC 2022-C56
439P/LINEAR,e,7.1143,56.4049,342.0508,3.489262,0.1512181,0.46961292,79.2048,02/01.0/2023,2000,g 13.5,4.0
# From MPEC 2022-WQ9
440P/Kobayashi,e,12.3389,328.8756,183.3023,8.581347,0.0392077,0.76042792,12.0794,02/01.0/2023,2000,g 15.5,4.0
# From MPEC 2022-X67
441P/PANSTARRS,e,2.5745,143.6153,178.7994,4.134503,0.1172382,0.19542012,248.5408,02/01.0/2023,2000,g 13.5,4.0
# From MPEC 2022-YN2
442P/McNaught,e,6.0589,32.0154,310.9262,4.978010,0.0887402,0.53352840,14.7310,02/01.0/2023,2000,g 13.5,4.0
# From MPEC 2022-OB6
443P/PANSTARRS-Christensen,e,19.8874,108.9431,145.1122,4.127098,0.1175539,0.28371360,13.3830,02/01.0/2023,2000,g 13.5,4.0
# From MPEC 2022-YN2
444P/WISE-PANSTARRS,e,22.1236,89.3935,170.9298,3.429201,0.1552082,0.57035795,31.9077,02/01.0/2023,2000,g 17.0,4.0
# From MPEC 2022-YB4
445P/Lemmon-PANSTARRS,e,1.0886,126.5802,213.6688,4.060972,0.1204368,0.41449848,20.1528,02/01.0/2023,2000,g 15.0,4.0
# From MPEC 2022-WQ9
446P/McNaught,e,16.6133,336.4029,344.7227,4.571692,0.1008297,0.64707478,24.9467,02/01.0/2023,2000,g 16.5,4.0
# From MPEC 2022-YB4
447P/Sheppard-Tholen,e,7.4337,302.6704,97.6768,5.641079,0.0735632,0.17978400,12.2028,02/01.0/2023,2000,g 12.0,4.0
# From MPEC 2023-A50
448P/PANSTARRS,e,12.1515,161.7544,218.7258,3.634816,0.1422265,0.41894645,20.9719,02/01.0/2023,2000,g 16.0,4.0
# From MPEC 2022-UE6
449P/Leonard,e,15.4651,242.5322,176.6875,3.600149,0.1442857,0.47961665,115.2960,02/01.0/2023,2000,g 16.0,4.0
# From MPEC 2022-TA6
450P/LONEOS,e,10.5518,124.8563,21.0981,7.972580,0.0437830,0.31043507,296.6725,02/01.0/2023,2000,g  6.5,4.0
# From MPEC 2023-BF4
451P/Christensen,e,26.4826,300.9122,186.6969,6.338267,0.0617658,0.55847137,4.0435,02/01.0/2023,2000,g 13.5,4.0
# From MPEC 2023-BF4
452P/Sheppard-Jewitt,e,6.4226,123.7000,37.0547,7.294087,0.0500320,0.42718530,355.8123,02/01.0/2023,2000,g  9.0,4.0
# From MPEC 2023-BF4
453P/WISE-Lemmon,e,27.0684,42.8981,70.8224,5.457433,0.0773075,0.58248946,357.6797,02/01.0/2023,2000,g 14.0,4.0
# From MPEC 2023-BF4
454P/PANSTARRS,e,19.8125,54.5882,19.9947,4.205269,0.1142914,0.36133887,21.7157,02/01.0/2023,2000,g 14.0,4.0
# From MPEC 2022-Y14
455P/PANSTARRS,e,14.1382,146.2078,237.5719,3.155367,0.1758447,0.30541041,355.6927,02/01.0/2023,2000,g 17.0,4.0
# From MPEC 2023-BD5
456P/PANSTARRS,e,16.9595,243.2081,234.4285,3.166209,0.1749423,0.11826226,218.3292,02/01.0/2023,2000,g 13.5,4.0
# From MPC107687
1I/`Oumuamua,h,09/09.4886/2017,122.6778,24.5997,241.6845,1.199252,0.255240,2000,23.0,2.0
# From MPEC 2020-K19
2I/Borisov,h,12/08.5549/2019,44.0527,308.1480,209.1251,3.356636,2.006548,2000,11.0,4.0
